IRIDIUM 166             
1 43570U 18061B   23233.74423799  .00000328  00000+0  10989-3 0  9995
2 43570  86.3983 127.4271 0002352  82.6222 277.5241 14.34220517265703
IRIDIUM 158             
1 43571U 18061C   23234.20090707  .00000197  00000+0  63185-4 0  9998
2 43571  86.3984 127.2452 0002231  74.7550 285.3892 14.34218782265740
IRIDIUM 165             
1 43572U 18061D   23233.73789616  .00000324  00000+0  10849-3 0  9990
2 43572  86.3986 127.4656 0002281  73.7295 286.4151 14.34221686265692
IRIDIUM 155             
1 43573U 18061E   23233.76961322  .00000323  00000+0  10839-3 0  9998
2 43573  86.3981 127.3719 0002360  89.5892 270.5575 14.34217393265675
IRIDIUM 154             
1 43574U 18061F   23233.26220319  .00000332  00000+0  11152-3 0  9997
2 43574  86.3986 127.6672 0001899  83.2843 276.8569 14.34219456265646
IRIDIUM 163             
1 43575U 18061G   23234.15016680  .00000323  00000+0  10842-3 0  9996
2 43575  86.3982 127.2437 0002095  83.6281 276.5154 14.34218877265741
IRIDIUM 156             
1 43576U 18061H   23233.77595316  .00000330  00000+0  11084-3 0  9999
2 43576  86.3983 127.4059 0002469  82.4786 277.6690 14.34219826265671
IRIDIUM 164             
1 43577U 18061J   23233.26854957  .00000335  00000+0  11243-3 0  9995
2 43577  86.3984 127.6423 0002235  77.8661 282.2785 14.34220049265655
